STARLINK-33712          
1 63797U 25091Y   25127.91668981 -.01717135  00000+0 -60855-2 0  9996
2 63797  43.0012 348.7695 0001697 267.7779 357.9075 15.90816939  2036
STARLINK-33827          
1 63798U 25091Z   25128.25002315 -.01009106  31460-3 -25820-2 0  9991
2 63798  43.0006 346.6523 0001798 243.5187 151.1894 15.94397604  2078
STARLINK-33899          
1 63799U 25091AA  25128.16667824 -.00965114  29070-3 -24383-2 0  9990
2 63799  43.0010 347.1698 0001893 263.2635  14.1219 15.94626247  2174
STARLINK-33900          
1 63800U 25091AB  25128.16667824 -.00966270  29162-3 -24281-2 0  9996
2 63800  43.0007 347.1650 0002125 266.6051  12.5346 15.94725780  2174
STARLINK-33975          
1 63802U 25091AC  25128.16667824 -.00972894  29558-3 -24315-2 0  9994
2 63802  43.0007 347.1605 0002107 266.5613  14.3120 15.94827917  2174
STARLINK-33951          
1 63803U 25091AD  25128.16667824 -.00978141  29880-3 -24315-2 0  9994
2 63803  43.0009 347.1568 0001822 260.8653  21.7094 15.94929694  2110
STARLINK-33909          
1 63804U 25092A   25127.75002315 -.00764165  19468-3 -16997-2 0  9995
2 63804  43.0009 112.3877 0001893 253.4058 251.4178 15.96927530  1686
STARLINK-34029          
1 63805U 25092B   25127.75002315 -.00766246  19578-3 -16981-2 0  9993
2 63805  43.0011 112.3863 0001505 259.3607 246.0073 15.96995437  1685
STARLINK-34102          
1 63806U 25092C   25127.75002315 -.00772462  19895-3 -16989-2 0  9991
2 63806  43.0010 112.3845 0001680 253.9274 252.1060 15.97133468  1738
STARLINK-34109          
1 63807U 25092D   25127.75002315 -.00776715  20118-3 -16977-2 0  9994
2 63807  43.0011 112.3830 0001510 255.7991 250.8550 15.97246549  1680
STARLINK-34091          
1 63808U 25092E   25127.75002315 -.00783239  20457-3 -16980-2 0  9994
2 63808  43.0012 112.3813 0001601 257.2290 250.1068 15.97394910  1732
STARLINK-34095          
1 63809U 25092F   25127.75002315 -.00788639  20742-3 -16976-2 0  9996
2 63809  43.0012 112.3797 0001591 254.7682 253.2162 15.97523651  1688
STARLINK-34127          
1 63810U 25092G   25127.75002315 -.00794426  21049-3 -16969-2 0  9992
2 63810  43.0011 112.3779 0001668 253.2691 255.3818 15.97663071  1680
STARLINK-34110          
1 63811U 25092H   25127.75002315 -.00799738  21334-3 -16962-2 0  9994
2 63811  43.0012 112.3764 0001628 254.0661 255.2314 15.97790963  1735
STARLINK-34101          
1 63812U 25092J   25127.75002315 -.00804596  21602-3 -16930-2 0  9997
2 63812  43.0011 112.3748 0001714 252.3261 257.6437 15.97933622  1575
STARLINK-34065          
1 63813U 25092K   25127.75002315 -.00809362  21864-3 -16910-2 0  9992
2 63813  43.0011 112.3731 0001777 251.7279 258.8871 15.98060833  1637
